{"type": "FeatureCollection", "features": [ {"type": "Feature", "properties": {"norad_id": 66908, "name": "1998-067XU", "group": "last-30-days", "lat": 35.563911360885825, "lon": -108.97843230139107, "alt_km": 406.7932507048108, "timestamp": "2025-12-20T03:42:46.121861+00:00", "meta": {"OBJECT_NAME": "1998-067XU", "OBJECT_ID": "1998-067XU", "EPOCH": "2025-12-18T14:03:56.443680", "MEAN_MOTION": 15.52259493, "ECCENTRICITY": 0.00039838, "INCLINATION": 51.6306, "RA_OF_ASC_NODE": 113.3296, "ARG_OF_PERICENTER": 260.0245, "MEAN_ANOMALY": 100.0295, "EPHEMERIS_TYPE": 0, "CLASSIFICATION_TYPE": "U", "NORAD_CAT_ID": 66908, "ELEMENT_SET_NO": 999, "REV_AT_EPOCH": 252, "BSTAR": 0.00087908108, "MEAN_MOTION_DOT": 0.00054298, "MEAN_MOTION_DDOT": 0}, "tle": {"line1": "1 66908U 98067XU  25352.58606995  .00054298  00000+0  87908-3 0  9996", "line2": "2 66908  51.6306 113.3296 0003983 260.0245 100.0295 15.52259493  2520"}}, "geometry": {"type": "Point", "coordinates": [-108.97843230139107, 35.563911360885825]}}, {"type": "Feature", "properties": {"norad_id": 66909, "name": "SILVERSAT", "group": "last-30-days", "lat": 31.89804022895398, "lon": -104.02838204371366, "alt_km": 406.87910260598255, "timestamp": "2025-12-20T03:42:46.121873+00:00", "meta": {"OBJECT_NAME": "SILVERSAT", "OBJECT_ID": "1998-067XV", "EPOCH": "2025-12-19T13:13:09.424128", "MEAN_MOTION": 15.5251652, "ECCENTRICITY": 0.0003839, "INCLINATION": 51.6306, "RA_OF_ASC_NODE": 108.5226, "ARG_OF_PERICENTER": 268.696, "MEAN_ANOMALY": 91.359, "EPHEMERIS_TYPE": 0, "CLASSIFICATION_TYPE": "U", "NORAD_CAT_ID": 66909, "ELEMENT_SET_NO": 999, "REV_AT_EPOCH": 267, "BSTAR": 0.00079912, "MEAN_MOTION_DOT": 0.00049748, "MEAN_MOTION_DDOT": 0}, "tle": {"line1": "1 66909U 98067XV  25353.55080352  .00049748  00000+0  79912-3 0  9998", "line2": "2 66909  51.6306 108.5226 0003839 268.6960  91.3590 15.52516520  2671"}}, "geometry": {"type": "Point", "coordinates": [-104.02838204371366, 31.89804022895398]}}, {"type": "Feature", "properties": {"norad_id": 66910, "name": "1998-067XW", "group": "last-30-days", "lat": 24.83270157198419, "lon": -96.01241272079933, "alt_km": 406.65029206006693, "timestamp": "2025-12-20T03:42:46.121883+00:00", "meta": {"OBJECT_NAME": "1998-067XW", "OBJECT_ID": "1998-067XW", "EPOCH": "2025-12-19T13:10:35.176800", "MEAN_MOTION": 15.525263, "ECCENTRICITY": 0.0004382, "INCLINATION": 51.6305, "RA_OF_ASC_NODE": 108.5102, "ARG_OF_PERICENTER": 243.3936, "MEAN_ANOMALY": 116.6605, "EPHEMERIS_TYPE": 0, "CLASSIFICATION_TYPE": "U", "NORAD_CAT_ID": 66910, "ELEMENT_SET_NO": 999, "REV_AT_EPOCH": 267, "BSTAR": 0.00069409, "MEAN_MOTION_DOT": 0.0004313, "MEAN_MOTION_DDOT": 0}, "tle": {"line1": "1 66910U 98067XW  25353.54901825  .00043130  00000+0  69409-3 0  9995", "line2": "2 66910  51.6305 108.5102 0004382 243.3936 116.6605 15.52526300  2677"}}, "geometry": {"type": "Point", "coordinates": [-96.01241272079933, 24.83270157198419]}}, {"type": "Feature", "properties": {"norad_id": 66911, "name": "1998-067XX", "group": "last-30-days", "lat": 14.92049523861363, "lon": -86.71805683481814, "alt_km": 406.7941219966824, "timestamp": "2025-12-20T03:42:46.121893+00:00", "meta": {"OBJECT_NAME": "1998-067XX", "OBJECT_ID": "1998-067XX", "EPOCH": "2025-12-19T19:18:04.959648", "MEAN_MOTION": 15.52964022, "ECCENTRICITY": 0.0003934, "INCLINATION": 51.6304, "RA_OF_ASC_NODE": 107.215, "ARG_OF_PERICENTER": 254.2011, "MEAN_ANOMALY": 105.8545, "EPHEMERIS_TYPE": 0, "CLASSIFICATION_TYPE": "U", "NORAD_CAT_ID": 66911, "ELEMENT_SET_NO": 999, "REV_AT_EPOCH": 270, "BSTAR": 0.00082359, "MEAN_MOTION_DOT": 0.00052143, "MEAN_MOTION_DDOT": 0}, "tle": {"line1": "1 66911U 98067XX  25353.80422407  .00052143  00000+0  82359-3 0  9992", "line2": "2 66911  51.6304 107.2150 0003934 254.2011 105.8545 15.52964022  2707"}}, "geometry": {"type": "Point", "coordinates": [-86.71805683481814, 14.92049523861363]}}, {"type": "Feature", "properties": {"norad_id": 66912, "name": "1998-067XY", "group": "last-30-days", "lat": 46.8933623158573, "lon": -132.25734006606115, "alt_km": 407.35573114802446, "timestamp": "2025-12-20T03:42:46.121905+00:00", "meta": {"OBJECT_NAME": "1998-067XY", "OBJECT_ID": "1998-067XY", "EPOCH": "2025-12-19T14:52:14.043072", "MEAN_MOTION": 15.51780846, "ECCENTRICITY": 0.0004012, "INCLINATION": 51.6307, "RA_OF_ASC_NODE": 108.231, "ARG_OF_PERICENTER": 260.881, "MEAN_ANOMALY": 99.1725, "EPHEMERIS_TYPE": 0, "CLASSIFICATION_TYPE": "U", "NORAD_CAT_ID": 66912, "ELEMENT_SET_NO": 999, "REV_AT_EPOCH": 267, "BSTAR": 0.00063264, "MEAN_MOTION_DOT": 0.00038197, "MEAN_MOTION_DDOT": 0}, "tle": {"line1": "1 66912U 98067XY  25353.61960698  .00038197  00000+0  63264-3 0  9998", "line2": "2 66912  51.6307 108.2310 0004012 260.8810  99.1725 15.51780846  2678"}}, "geometry": {"type": "Point", "coordinates": [-132.25734006606115, 46.8933623158573]}}, {"type": "Feature", "properties": {"norad_id": 66913, "name": "2025-284A", "group": "last-30-days", "lat": -39.237743740862996, "lon": -51.67108932246363, "alt_km": 517.9740421313245, "timestamp": "2025-12-20T03:42:46.121916+00:00", "meta": {"OBJECT_NAME": "2025-284A", "OBJECT_ID": "2025-284A", "EPOCH": "2025-12-18T06:24:29.359008", "MEAN_MOTION": 15.16462178, "ECCENTRICITY": 0.00203688, "INCLINATION": 80.4052, "RA_OF_ASC_NODE": 122.7714, "ARG_OF_PERICENTER": 156.4299, "MEAN_ANOMALY": 203.7866, "EPHEMERIS_TYPE": 0, "CLASSIFICATION_TYPE": "U", "NORAD_CAT_ID": 66913, "ELEMENT_SET_NO": 999, "REV_AT_EPOCH": 196, "BSTAR": 0.00046237905, "MEAN_MOTION_DOT": 9.066e-05, "MEAN_MOTION_DDOT": 0}, "tle": {"line1": "1 66913U 25284A   25352.26700647  .00009066  00000+0  46238-3 0  9991", "line2": "2 66913  80.4052 122.7714 0020368 156.4299 203.7866 15.16462178  1964"}}, "geometry": {"type": "Point", "coordinates": [-51.67108932246363, -39.237743740862996]}}, {"type": "Feature", "properties": {"norad_id": 66914, "name": "2025-284B", "group": "last-30-days", "lat": -79.50432177817063, "lon": 6.313720256143254, "alt_km": 511.9092107394936, "timestamp": "2025-12-20T03:42:46.121926+00:00", "meta": {"OBJECT_NAME": "2025-284B", "OBJECT_ID": "2025-284B", "EPOCH": "2025-12-16T06:51:11.417184", "MEAN_MOTION": 15.18985981, "ECCENTRICITY": 0.00081793, "INCLINATION": 80.4045, "RA_OF_ASC_NODE": 125.2713, "ARG_OF_PERICENTER": 234.9626, "MEAN_ANOMALY": 125.0834, "EPHEMERIS_TYPE": 0, "CLASSIFICATION_TYPE": "U", "NORAD_CAT_ID": 66914, "ELEMENT_SET_NO": 999, "REV_AT_EPOCH": 166, "BSTAR": 0.00038444995, "MEAN_MOTION_DOT": 8.068e-05, "MEAN_MOTION_DDOT": 0}, "tle": {"line1": "1 66914U 25284B   25350.28554881  .00008068  00000+0  38445-3 0  9991", "line2": "2 66914  80.4045 125.2713 0008179 234.9626 125.0834 15.18985981  1668"}}, "geometry": {"type": "Point", "coordinates": [6.313720256143254, -79.50432177817063]}}, {"type": "Feature", "properties": {"norad_id": 66915, "name": "HULIANWANG DIGUI-105", "group": "last-30-days", "lat": -43.10270005888329, "lon": -41.141585160368486, "alt_km": 882.6471302015752, "timestamp": "2025-12-20T03:42:46.121936+00:00", "meta": {"OBJECT_NAME": "HULIANWANG DIGUI-105", "OBJECT_ID": "2025-285A", "EPOCH": "2025-12-19T21:25:58.376064", "MEAN_MOTION": 14.03717649, "ECCENTRICITY": 0.0008033, "INCLINATION": 50.0048, "RA_OF_ASC_NODE": 88.1436, "ARG_OF_PERICENTER": 306.6032, "MEAN_ANOMALY": 53.4133, "EPHEMERIS_TYPE": 0, "CLASSIFICATION_TYPE": "U", "NORAD_CAT_ID": 66915, "ELEMENT_SET_NO": 999, "REV_AT_EPOCH": 191, "BSTAR": 8.9954e-05, "MEAN_MOTION_DOT": -9e-08, "MEAN_MOTION_DDOT": 0}, "tle": {"line1": "1 66915U 25285A   25353.89303676 -.00000009  00000+0  89954-4 0  9997", "line2": "2 66915  50.0048  88.1436 0008033 306.6032  53.4133 14.03717649  1912"}}, "geometry": {"type": "Point", "coordinates": [-41.141585160368486, -43.10270005888329]}}, {"type": "Feature", "properties": {"norad_id": 66916, "name": "HULIANWANG DIGUI-106", "group": "last-30-days", "lat": -48.48287203189945, "lon": -21.460369574812624, "alt_km": 881.8023298892986, "timestamp": "2025-12-20T03:42:46.121946+00:00", "meta": {"OBJECT_NAME": "HULIANWANG DIGUI-106", "OBJECT_ID": "2025-285B", "EPOCH": "2025-12-19T21:21:47.111040", "MEAN_MOTION": 14.03702551, "ECCENTRICITY": 0.0006815, "INCLINATION": 50.0059, "RA_OF_ASC_NODE": 88.1298, "ARG_OF_PERICENTER": 299.798, "MEAN_ANOMALY": 60.2247, "EPHEMERIS_TYPE": 0, "CLASSIFICATION_TYPE": "U", "NORAD_CAT_ID": 66916, "ELEMENT_SET_NO": 999, "REV_AT_EPOCH": 191, "BSTAR": 8.2698e-05, "MEAN_MOTION_DOT": -2.1e-07, "MEAN_MOTION_DDOT": 0}, "tle": {"line1": "1 66916U 25285B   25353.89012860 -.00000021  00000+0  82698-4 0  9992", "line2": "2 66916  50.0059  88.1298 0006815 299.7980  60.2247 14.03702551  1919"}}, "geometry": {"type": "Point", "coordinates": [-21.460369574812624, -48.48287203189945]}}, {"type": "Feature", "properties": {"norad_id": 66917, "name": "HULIANWANG DIGUI-107", "group": "last-30-days", "lat": -49.90640796294624, "lon": -7.238126373112898, "alt_km": 881.6406138484554, "timestamp": "2025-12-20T03:42:46.121956+00:00", "meta": {"OBJECT_NAME": "HULIANWANG DIGUI-107", "OBJECT_ID": "2025-285C", "EPOCH": "2025-12-19T19:36:34.230240", "MEAN_MOTION": 14.03662567, "ECCENTRICITY": 0.0007481, "INCLINATION": 50.0024, "RA_OF_ASC_NODE": 88.4035, "ARG_OF_PERICENTER": 309.1031, "MEAN_ANOMALY": 50.9207, "EPHEMERIS_TYPE": 0, "CLASSIFICATION_TYPE": "U", "NORAD_CAT_ID": 66917, "ELEMENT_SET_NO": 999, "REV_AT_EPOCH": 190, "BSTAR": 8.1603e-05, "MEAN_MOTION_DOT": -2.2e-07, "MEAN_MOTION_DDOT": 0}, "tle": {"line1": "1 66917U 25285C   25353.81706285 -.00000022  00000+0  81603-4 0  9992", "line2": "2 66917  50.0024  88.4035 0007481 309.1031  50.9207 14.03662567  1900"}}, "geometry": {"type": "Point", "coordinates": [-7.238126373112898, -49.90640796294624]}}]}